NORAD_CAT_ID,OBJECT_NAME,OBJECT_TYPE,EPOCH,MEAN_MOTION,ECCENTRICITY,INCLINATION,RA_OF_ASC_NODE,ARG_OF_PERICENTER,MEAN_ANOMALY,BSTAR,MEAN_MOTION_DOT,MEAN_MOTION_DDOT,TLE_LINE0,TLE_LINE1,TLE_LINE2,SEMIMAJOR_AXIS,PERIOD,APOGEE,PERIGEE,DECAYED
52131.0,STARLINK-3711,PAYLOAD,2022-11-09 20:07:36,15.08826359,0.000128,53.2193,127.29,60.7309,299.3811,-0.00020933,-3.617e-05,0.0,0 STARLINK-3711,1 52131U 22029AV  22313.83862199 -.00003617  00000-0 -20933-3 0  9993,2 52131  53.2193 127.2900 0001280  60.7309 299.3811 15.08826359 37385,6917.922,95.438,540.673,538.9019999999998,0.0
52131.0,STARLINK-3711,PAYLOAD,2022-11-10 12:01:28,15.08824013,0.0001416999999999,53.2175,124.3169,58.4585,301.6545,-0.00014782,-2.639e-05,0.0,0 STARLINK-3711,1 52131U 22029AV  22314.50102577 -.00002639  00000-0 -14782-3 0  9993,2 52131  53.2175 124.3169 0001417  58.4585 301.6545 15.08824013 37489,6917.929,95.439,540.775,538.814,0.0
52131.0,STARLINK-3711,PAYLOAD,2022-11-10 16:47:38,15.08826669,0.0001343,53.2187,123.4242,62.4081,297.7047,-0.00015427,-2.741e-05,0.0,0 STARLINK-3711,1 52131U 22029AV  22314.69974608 -.00002741  00000-0 -15427-3 0  9996,2 52131  53.2187 123.4242 0001343  62.4081 297.7047 15.08826669 37513,6917.920999999999,95.438,540.715,538.857,0.0
52131.0,STARLINK-3711,PAYLOAD,2022-11-11 03:55:19,15.08836275,0.000128,53.2188,121.3432,51.6858,308.4249,-0.00017339,-3.046e-05,0.0,0 STARLINK-3711,1 52131U 22029AV  22315.16342446 -.00003046  00000-0 -17339-3 0  9991,2 52131  53.2188 121.3432 0001280  51.6858 308.4249 15.08836275 37589,6917.892,95.438,540.6419999999998,538.871,0.0
52131.0,STARLINK-3711,PAYLOAD,2022-11-11 11:52:16,15.08817464,0.0001330999999999,53.2185,119.8559,50.464,309.647,8.959799999999999e-05,1.138e-05,0.0,0 STARLINK-3711,1 52131U 22029AV  22315.49463057  .00001138  00000-0  89598-4 0  9994,2 52131  53.2185 119.8559 0001331  50.4640 309.6470 15.08817464 37635,6917.949000000001,95.439,540.735,538.893,0.0
52131.0,STARLINK-3711,PAYLOAD,2022-11-11 18:13:48,15.08822059,0.000134,53.2186,118.6669,51.5578,308.5534,0.00012027,1.626e-05,0.0,0 STARLINK-3711,1 52131U 22029AV  22315.75959006  .00001626  00000-0  12027-3 0  9991,2 52131  53.2186 118.6669 0001340  51.5578 308.5534 15.08822059 37676,6917.935,95.439,540.727,538.873,0.0
52131.0,STARLINK-3711,PAYLOAD,2022-11-12 10:07:39,15.08835267,0.0001314,53.2187,115.6929,53.2387,306.8726,0.00011215,1.497e-05,0.0,0 STARLINK-3711,1 52131U 22029AV  22316.42198758  .00001497  00000-0  11215-3 0  9999,2 52131  53.2187 115.6929 0001314  53.2387 306.8726 15.08835267 37771,6917.895,95.438,540.669,538.851,0.0
52131.0,STARLINK-3711,PAYLOAD,2022-11-12 18:04:35,15.08840642,0.0001359,53.2189,114.2063,53.8377,306.274,0.00014582,2.034e-05,0.0,0 STARLINK-3711,1 52131U 22029AV  22316.75318344  .00002034  00000-0  14582-3 0  9998,2 52131  53.2189 114.2063 0001359  53.8377 306.2740 15.08840642 37820,6917.878000000002,95.438,540.684,538.803,0.0
52131.0,STARLINK-3711,PAYLOAD,2022-11-13 11:33:49,15.08845795,0.0001394,53.2192,110.9358,56.4618,303.6507,0.00010461,1.378e-05,0.0,0 STARLINK-3711,1 52131U 22029AV  22317.48182003  .00001378  00000-0  10461-3 0  9992,2 52131  53.2192 110.9358 0001394  56.4618 303.6507 15.08845795 37938,6917.863,95.437,540.692,538.763,0.0
52131.0,STARLINK-3711,PAYLOAD,2022-11-13 17:55:21,15.08846495,0.0001404,53.2191,109.746,54.9189,305.1935,7.0521e-05,8.35e-06,0.0,0 STARLINK-3711,1 52131U 22029AV  22317.74677884  .00000835  00000-0  70521-4 0  9998,2 52131  53.2191 109.7460 0001404  54.9189 305.1935 15.08846495 37979,6917.861,95.437,540.697,538.754,0.0
52131.0,STARLINK-3711,PAYLOAD,2022-11-14 03:27:40,15.08849131,0.0001434,53.219,107.9618,53.71100000000001,306.4015,4.6211e-05,4.48e-06,0.0,0 STARLINK-3711,1 52131U 22029AV  22318.14421559  .00000448  00000-0  46211-4 0  9998,2 52131  53.2190 107.9618 0001434  53.7110 306.4015 15.08849131 38038,6917.852,95.437,540.7090000000002,538.725,0.0
52131.0,STARLINK-3711,PAYLOAD,2022-11-14 16:10:45,15.08851196,0.0001686999999999,53.2189,105.5823,60.7657,299.3504,-2.6428e-05,-7.09e-06,0.0,0 STARLINK-3711,1 52131U 22029AV  22318.67413426 -.00000709  00000-0 -26428-4 0  9990,2 52131  53.2189 105.5823 0001687  60.7657 299.3504 15.08851196 38118,6917.846,95.437,540.878,538.544,0.0
52131.0,STARLINK-3711,PAYLOAD,2022-11-14 19:21:30,15.08866688,0.0001669,53.2191,104.9878,59.3044,300.8112,0.00010441,1.375e-05,0.0,0 STARLINK-3711,1 52131U 22029AV  22318.80659842  .00001375  00000-0  10441-3 0  9994,2 52131  53.2191 104.9878 0001669  59.3044 300.8112 15.08866688 38135,6917.799,95.436,540.818,538.509,0.0
52131.0,STARLINK-3711,PAYLOAD,2022-11-15 09:39:58,15.08857695,0.0001968,53.2185,102.3119,60.1228,299.996,5.992e-05,6.66e-06,0.0,0 STARLINK-3711,1 52131U 22029AV  22319.40275736  .00000666  00000-0  59920-4 0  9995,2 52131  53.2185 102.3119 0001968  60.1228 299.9960 15.08857695 38221,6917.826,95.436,541.053,538.33,0.0
52131.0,STARLINK-3711,PAYLOAD,2022-11-15 17:36:54,15.08846881,0.0001576999999999,53.2196,100.8257,46.7226,313.3898,-2.9957e-05,-7.65e-06,0.0,0 STARLINK-3711,1 52131U 22029AV  22319.73396403 -.00000765  00000-0 -29957-4 0  9995,2 52131  53.2196 100.8257 0001577  46.7226 313.3898 15.08846881 38274,6917.859,95.437,540.815,538.633,0.0
52131.0,STARLINK-3711,PAYLOAD,2022-11-16 09:30:46,15.08838916,0.0001718,53.22,97.8525,51.8034,308.3113,-6.4253e-05,-1.31e-05,0.0,0 STARLINK-3711,1 52131U 22029AV  22320.39636827 -.00001310  00000-0 -64253-4 0  9991,2 52131  53.2200  97.8525 0001718  51.8034 308.3113 15.08838916 38379,6917.884,95.438,540.937,538.56,0.0
52131.0,STARLINK-3711,PAYLOAD,2022-11-16 14:16:55,15.08833822,0.0001685,53.2197,96.9603,51.1608,308.9535,-9.8135e-05,-1.849e-05,0.0,0 STARLINK-3711,1 52131U 22029AV  22320.59509233 -.00001849  00000-0 -98135-4 0  9996,2 52131  53.2197  96.9603 0001685  51.1608 308.9535 15.08833822 38403,6917.899,95.438,540.93,538.599,0.0
52131.0,STARLINK-3711,PAYLOAD,2022-11-16 17:27:42,15.08836272,0.0001733,53.2196,96.3653,55.4775,304.6381,-0.00011099,-2.054e-05,0.0,0 STARLINK-3711,1 52131U 22029AV  22320.72757144 -.00002054  00000-0 -11099-3 0  9999,2 52131  53.2196  96.3653 0001733  55.4775 304.6381 15.08836272 38423,6917.892,95.438,540.956,538.558,0.0
52131.0,STARLINK-3711,PAYLOAD,2022-11-17 09:21:32,15.08837756,0.0001636999999999,53.2199,93.3915,50.5958,309.5179,-2.1249e-05,-6.26e-06,0.0,0 STARLINK-3711,1 52131U 22029AV  22321.38996521 -.00000626  00000-0 -21249-4 0  9998,2 52131  53.2199  93.3915 0001637  50.5958 309.5179 15.08837756 38524,6917.887,95.438,540.885,538.62,0.0
52131.0,STARLINK-3711,PAYLOAD,2022-11-17 14:07:42,15.08841577,0.0001662,53.2198,92.4997,51.0556,309.0584,1.7552e-05,-9e-08,0.0,0 STARLINK-3711,1 52131U 22029AV  22321.58868148 -.00000009  00000-0  17552-4 0  9999,2 52131  53.2198  92.4997 0001662  51.0556 309.0584 15.08841577 38555,6917.876,95.437,540.89,538.591,0.0
52131.0,STARLINK-3711,PAYLOAD,2022-11-17 15:43:05,15.08842481,0.0001667,53.2199,92.2024,51.4171,308.697,2.4136e-05,9.6e-07,0.0,0 STARLINK-3711,1 52131U 22029AV  22321.65492062  .00000096  00000-0  24136-4 0  9996,2 52131  53.2199  92.2024 0001667  51.4171 308.6970 15.08842481 38567,6917.873000000001,95.437,540.891,538.585,0.0
52131.0,STARLINK-3711,PAYLOAD,2022-11-18 07:36:56,15.0883494,0.000167,53.2198,89.2289,52.737,307.3775,7.305899999999999e-05,8.75e-06,0.0,0 STARLINK-3711,1 52131U 22029AV  22322.31732289  .00000875  00000-0  73059-4 0  9991,2 52131  53.2198  89.2289 0001670  52.7370 307.3775 15.08834940 38665,6917.896,95.438,540.9159999999998,538.606,0.0
52131.0,STARLINK-3711,PAYLOAD,2022-11-18 15:33:52,15.08835109,0.0001691,53.2199,87.7423,52.549,307.5655,6.6258e-05,7.66e-06,0.0,0 STARLINK-3711,1 52131U 22029AV  22322.64852384  .00000766  00000-0  66258-4 0  9998,2 52131  53.2199  87.7423 0001691  52.5490 307.5655 15.08835109 38716,6917.895,95.438,540.93,538.591,0.0
52131.0,STARLINK-3711,PAYLOAD,2022-11-19 09:03:07,15.08839383,0.000172,53.2195,84.471,47.2578,312.8559,-0.00012613,-2.295e-05,0.0,0 STARLINK-3711,1 52131U 22029AV  22323.37717110 -.00002295  00000-0 -12613-3 0  9992,2 52131  53.2195  84.4710 0001720  47.2578 312.8559 15.08839383 38828,6917.882,95.438,540.937,538.557,0.0
52131.0,STARLINK-3711,PAYLOAD,2022-11-19 18:35:25,15.08842398,0.0001724,53.2201,82.6876,53.0243,307.0906,-1.7525e-05,-5.67e-06,0.0,0 STARLINK-3711,1 52131U 22029AV  22323.77460446 -.00000567  00000-0 -17525-4 0  9991,2 52131  53.2201  82.6876 0001724  53.0243 307.0906 15.08842398 38885,6917.873000000001,95.437,540.931,538.545,0.0
52131.0,STARLINK-3711,PAYLOAD,2022-11-20 08:53:54,15.08834292,0.0001696,53.2199,80.0113,52.735,307.3797,-4.0816e-05,-9.37e-06,0.0,0 STARLINK-3711,1 52131U 22029AV  22324.37077081 -.00000937  00000-0 -40816-4 0  9997,2 52131  53.2199  80.0113 0001696  52.7350 307.3797 15.08834292 38975,6917.898,95.438,540.936,538.59,0.0
52131.0,STARLINK-3711,PAYLOAD,2022-11-20 12:04:40,15.08836234,0.0001713,53.2202,79.4167,53.982,306.1331,-2.722e-05,-7.21e-06,0.0,0 STARLINK-3711,1 52131U 22029AV  22324.50324948 -.00000721  00000-0 -27220-4 0  9994,2 52131  53.2202  79.4167 0001713  53.9820 306.1331 15.08836234 38997,6917.892,95.438,540.942,538.572,0.0
52131.0,STARLINK-3711,PAYLOAD,2022-11-20 15:15:26,15.08838175,0.0001721999999999,53.22,78.8214,49.6841,310.4302,-1.9222e-05,-5.94e-06,0.0,0 STARLINK-3711,1 52131U 22029AV  22324.63572829 -.00000594  00000-0 -19222-4 0  9992,2 52131  53.2200  78.8214 0001722  49.6841 310.4302 15.08838175 39012,6917.886,95.438,540.942,538.56,0.0
52131.0,STARLINK-3711,PAYLOAD,2022-11-21 13:30:51,15.08834746,0.0001688,53.2195,74.65899999999998,47.1522,312.9611,3.3388e-05,2.43e-06,0.0,0 STARLINK-3711,1 52131U 22029AV  22325.56309243  .00000243  00000-0  33388-4 0  9991,2 52131  53.2195  74.6590 0001688  47.1522 312.9611 15.08834746 39151,6917.896,95.438,540.929,538.594,0.0
